*******************************************************************************
JPL/HORIZONS                 445 Edna (A899 TC)            2020-Jun-22 09:01:30
Rec #:     445 (+COV) Soln.date: 2020-May-20_01:05:53   # obs: 2465 (1899-2020)
 
IAU76/J2000 helio. ecliptic osc. elements (au, days, deg., period=Julian yrs):
 
  EPOCH=  2456032.5 ! 2012-Apr-15.00 (TDB)         Residual RMS= .26949
   EC= .1919718271521266   QR= 2.585274201529264   TP= 2456489.8377109673
   OM= 292.3516819994219   W=  80.2873085407753    IN= 21.37257607180574
   A= 3.199485226384539    MA= 281.2372404272339   ADIST= 3.813696251239814
   PER= 5.72306            N= .172220124           ANGMOM= .030197274
   DAN= 2.9849             DDN= 3.18472            L= 11.9368996
   B= 21.0515275           MOID= 1.68393004        TP= 2013-Jul-16.3377109673
 
Asteroid physical parameters (km, seconds, rotational period in hours):
   GM= n.a.                RAD= 43.906             ROTPER= 19.959
   H= 9.2                  G= .150                 B-V= .684
                           ALBEDO= .044            STYP= C
 
ASTEROID comments: 
1: soln ref.= JPL#39, OCC=0
2: source=ORB
*******************************************************************************
 
 
*******************************************************************************
Ephemeris / WWW_USER Mon Jun 22 09:01:30 2020 Pasadena, USA      / Horizons
*******************************************************************************
Target body name: 445 Edna (A899 TC)              {source: JPL#39}
Center body name: Solar System Barycenter (0)     {source: DE431}
Center-site name: BODY CENTER
*******************************************************************************
Start time      : A.D. 1969-Jun-28 00:00:00.0000 TDB
Stop  time      : A.D. 2071-May-04 00:00:00.0000 TDB
Step-size       : 7200 minutes
*******************************************************************************
Center geodetic : 0.00000000,0.00000000,0.0000000 {E-lon(deg),Lat(deg),Alt(km)}
Center cylindric: 0.00000000,0.00000000,0.0000000 {E-lon(deg),Dxy(km),Dz(km)}
Center radii    : (undefined)                                                  
Small perturbers: Yes                             {source: SB431-N16}
Output units    : AU-D
Output type     : GEOMETRIC cartesian states
Output format   : 2 (position and velocity)
Reference frame : Ecliptic of J2000.0
*******************************************************************************
Initial IAU76/J2000 heliocentric ecliptic osculating elements (au, days, deg.):
  EPOCH=  2456032.5 ! 2012-Apr-15.00 (TDB)         Residual RMS= .26949        
   EC= .1919718271521266   QR= 2.585274201529264   TP= 2456489.8377109673      
   OM= 292.3516819994219   W=  80.2873085407753    IN= 21.37257607180574       
  Equivalent ICRF heliocentric equatorial cartesian coordinates (au, au/d):
   X= 1.720575904737730E-01  Y=-2.742097725878806E+00  Z=-1.634524844921625E+00
  VX= 8.779021531767033E-03 VY= 3.633551583339568E-04 VZ= 3.928348009128632E-03
Asteroid physical parameters (km, seconds, rotational period in hours):        
   GM= n.a.                RAD= 43.906             ROTPER= 19.959              
   H= 9.2                  G= .150                 B-V= .684                   
                           ALBEDO= .044            STYP= C                     
*******************************************************************************
            JDTDB,            Calendar Date (TDB),        delta-T,                      X,                      Y,                      Z,                     VX,                     VY,                     VZ,
******************************************************************************************************************************************************************************************************************
$$SOE
2458740.500000000, A.D. 2019-Sep-14 00:00:00.0000,      69.182427,  1.466983830416118E+00,  2.070930247461189E+00,  8.332247008991810E-01, -7.970591540530453E-03,  7.938832964143390E-03, -1.718210716677438E-03,
2458745.500000000, A.D. 2019-Sep-19 00:00:00.0000,      69.182378,  1.426847456136781E+00,  2.110220319497702E+00,  8.244720799012921E-01, -8.083308481718180E-03,  7.776873751405834E-03, -1.782649846953685E-03,
2458750.500000000, A.D. 2019-Sep-24 00:00:00.0000,      69.182343,  1.386157252493230E+00,  2.148695866680286E+00,  8.154000994190894E-01, -8.192121430609820E-03,  7.613043530743231E-03, -1.845950840263396E-03,
2458755.500000000, A.D. 2019-Sep-29 00:00:00.0000,      69.182321,  1.344932763704431E+00,  2.186347840770603E+00,  8.060145037760221E-01, -8.297021395428069E-03,  7.447464852144132E-03, -1.908092523287288E-03,
2458760.500000000, A.D. 2019-Oct-04 00:00:00.0000,      69.182312,  1.303193568384349E+00,  2.223167803568277E+00,  7.963211389454442E-01, -8.398003588852086E-03,  7.280259150341826E-03, -1.969055406205429E-03,
2458765.500000000, A.D. 2019-Oct-09 00:00:00.0000,      69.182313,  1.260959258841537E+00,  2.259147920886536E+00,  7.863259441840473E-01, -8.495067298218773E-03,  7.111546567359417E-03, -2.028821661680871E-03,
2458770.500000000, A.D. 2019-Oct-14 00:00:00.0000,      69.182325,  1.218249421042818E+00,  2.294280955667432E+00,  7.760349437798136E-01, -8.588215749813886E-03,  6.941445785830823E-03, -2.087375100113469E-03,
2458775.500000000, A.D. 2019-Oct-19 00:00:00.0000,      69.182351,  1.175083615268603E+00,  2.328560260290903E+00,  7.654542389324464E-01, -8.677455968068081E-03,  6.770073873228329E-03, -2.144701141443088E-03,
2458780.500000000, A.D. 2019-Oct-24 00:00:00.0000,      69.182389,  1.131481357483293E+00,  2.361979768132395E+00,  7.545899997828232E-01, -8.762798630453648E-03,  6.597546137064920E-03, -2.200786783782668E-03,
2458785.500000000, A.D. 2019-Oct-29 00:00:00.0000,      69.182441,  1.087462101440328E+00,  2.394533984423964E+00,  7.434484576066291E-01, -8.844257918857727E-03,  6.423975991084689E-03, -2.255620569160253E-03,
2458790.500000000, A.D. 2019-Nov-03 00:00:00.0000,      69.182505,  1.043045221537616E+00,  2.426217976473764E+00,  7.320358971859477E-01, -8.921851368178338E-03,  6.249474832424465E-03, -2.309192546635583E-03,
2458795.500000000, A.D. 2019-Nov-08 00:00:00.0000,      69.182579,  9.982499964354909E-01,  2.457027363298745E+00,  7.203586493713274E-01, -8.995599712816334E-03,  6.074151929727468E-03, -2.361494233030656E-03,
2458800.500000000, A.D. 2019-Nov-13 00:00:00.0000,      69.182662,  9.530955934463857E-01,  2.486958304725153E+00,  7.084230838456678E-01, -9.065526731565982E-03,  5.898114322122055E-03, -2.412518571521844E-03,
2458805.500000000, A.D. 2019-Nov-18 00:00:00.0000,      69.182755,  9.076010537032254E-01,  2.516007490010125E+00,  6.962356020996296E-01, -9.131659091330319E-03,  5.721466728522496E-03, -2.462259888541042E-03,
2458810.500000000, A.D. 2019-Nov-23 00:00:00.0000,      69.182859,  8.617852781101308E-01,  2.544172126033410E+00,  6.838026306253807E-01, -9.194026190751332E-03,  5.544311466249479E-03, -2.510713849623778E-03,
2458815.500000000, A.D. 2019-Nov-28 00:00:00.0000,      69.182974,  8.156670140719375E-01,  2.571449925105427E+00,  6.711306143335007E-01, -9.252660005202147E-03,  5.366748379124358E-03, -2.557877414221585E-03,
2458820.500000000, A.D. 2019-Dec-03 00:00:00.0000,      69.183096,  7.692648429951719E-01,  2.597839092441786E+00,  6.582260101993765E-01, -9.307594933083779E-03,  5.188874776023983E-03, -2.603748789082642E-03,
2458825.500000000, A.D. 2019-Dec-08 00:00:00.0000,      69.183223,  7.225971685553125E-01,  2.623338313355619E+00,  6.450952811455126E-01, -9.358867643070779E-03,  5.010785379206313E-03, -2.648327380629909E-03,
2458830.500000000, A.D. 2019-Dec-13 00:00:00.0000,      69.183355,  6.756822057237889E-01,  2.647946740213378E+00,  6.317448901631340E-01, -9.406516923150161E-03,  4.832572281259471E-03, -2.691613746921866E-03,
2458835.500000000, A.D. 2019-Dec-18 00:00:00.0000,      69.183492,  6.285379705434559E-01,  2.671663979196160E+00,  6.181812946746866E-01, -9.450583532284703E-03,  4.654324910348862E-03, -2.733609549337605E-03,
2458840.500000000, A.D. 2019-Dec-23 00:00:00.0000,      69.183635,  5.811822706383373E-01,  2.694490076907800E+00,  6.044109411385316E-01, -9.491110055087171E-03,  4.476130003646552E-03, -2.774317504024929E-03,
2458845.500000000, A.D. 2019-Dec-28 00:00:00.0000,      69.183782,  5.336326964419797E-01,  2.716425506870072E+00,  5.904402598967912E-01, -9.528140759735281E-03,  4.298071588693806E-03, -2.813741333212520E-03,
2458850.500000000, A.D. 2020-Jan-02 00:00:00.0000,      69.183930,  4.859066131277083E-01,  2.737471155943814E+00,  5.762756602666776E-01, -9.561721459331290E-03,  4.120230972341225E-03, -2.851885716532603E-03,
2458855.500000000, A.D. 2020-Jan-07 00:00:00.0000,      69.184077,  4.380211532230593E-01,  2.757628310712855E+00,  5.619235258748405E-01, -9.591899376900704E-03,  3.942686736862205E-03, -2.888756242516879E-03,
2458860.500000000, A.D. 2020-Jan-12 00:00:00.0000,      69.184222,  3.899932098897504E-01,  2.776898643865552E+00,  5.473902102334570E-01, -9.618723014208899E-03,  3.765514742810010E-03, -2.924359360432171E-03,
2458865.500000000, A.D. 2020-Jan-17 00:00:00.0000,      69.184366,  3.418394308496740E-01,  2.795284200606551E+00,  5.326820325559541E-01, -9.642242024560337E-03,  3.588788138175650E-03, -2.958702332618548E-03,
2458870.500000000, A.D. 2020-Jan-22 00:00:00.0000,      69.184509,  2.935762129366269E-01,  2.812787385129170E+00,  5.178052738094618E-01, -9.662507089728340E-03,  3.412577373401137E-03, -2.991793187482164E-03,
2458875.500000000, A.D. 2020-Jan-27 00:00:00.0000,      69.184648,  2.452196972527965E-01,  2.829410947176544E+00,  5.027661730003757E-01, -9.679569801142051E-03,  3.236950221806448E-03, -3.023640673280787E-03,
